{
  "type": "FeatureCollection",
  "features": [
    {
      "type": "Feature",
      "properties": {
        "norad_id": 66907,
        "name": "1998-067XT",
        "group": "stations",
        "lat": 44.79263198712938,
        "lon": -62.981212792856745,
        "alt_km": 408.3618166035285,
        "timestamp": "2025-12-07T09:35:08.590959+00:00",
        "meta_object_name": "1998-067XT",
        "meta_object_id": "1998-067XT",
        "meta_epoch": "2025-12-06T22:15:35.290656",
        "meta_mean_motion": 15.50498848,
        "meta_eccentricity": 0.00052114,
        "meta_inclination": 51.6299,
        "meta_ra_of_asc_node": 171.2284,
        "meta_arg_of_pericenter": 194.7186,
        "meta_mean_anomaly": 165.3652,
        "meta_ephemeris_type": 0,
        "meta_classification_type": "U",
        "meta_norad_cat_id": 66907,
        "meta_element_set_no": 999,
        "meta_rev_at_epoch": 71,
        "meta_bstar": 0.001226899,
        "meta_mean_motion_dot": 0.00071486,
        "meta_mean_motion_ddot": 0,
        "tle_line1": "1 66907U 98067XT  25340.92749179  .00071486  00000+0  12269-2 0  9997",
        "tle_line2": "2 66907  51.6299 171.2284 0005211 194.7186 165.3652 15.50498848   710"
      },
      "geometry": {
        "type": "Point",
        "coordinates": [
          -62.981212792856745,
          44.79263198712938
        ]
      }
    },
    {
      "type": "Feature",
      "properties": {
        "norad_id": 66908,
        "name": "1998-067XU",
        "group": "stations",
        "lat": 44.3880187775163,
        "lon": -61.97162922662608,
        "alt_km": 408.1814404987699,
        "timestamp": "2025-12-07T09:35:08.590969+00:00",
        "meta_object_name": "1998-067XU",
        "meta_object_id": "1998-067XU",
        "meta_epoch": "2025-12-06T22:15:23.816736",
        "meta_mean_motion": 15.50551079,
        "meta_eccentricity": 0.00054036,
        "meta_inclination": 51.6296,
        "meta_ra_of_asc_node": 171.2272,
        "meta_arg_of_pericenter": 194.2976,
        "meta_mean_anomaly": 165.7861,
        "meta_ephemeris_type": 0,
        "meta_classification_type": "U",
        "meta_norad_cat_id": 66908,
        "meta_element_set_no": 999,
        "meta_rev_at_epoch": 71,
        "meta_bstar": 0.0011470427,
        "meta_mean_motion_dot": 0.00066891,
        "meta_mean_motion_ddot": 0,
        "tle_line1": "1 66908U 98067XU  25340.92735899  .00066891  00000+0  11470-2 0  9999",
        "tle_line2": "2 66908  51.6296 171.2272 0005403 194.2976 165.7861 15.50551079   712"
      },
      "geometry": {
        "type": "Point",
        "coordinates": [
          -61.97162922662608,
          44.3880187775163
        ]
      }
    },
    {
      "type": "Feature",
      "properties": {
        "norad_id": 66909,
        "name": "1998-067XV",
        "group": "stations",
        "lat": 44.24265641655215,
        "lon": -61.61726494396558,
        "alt_km": 408.0863481060478,
        "timestamp": "2025-12-07T09:35:08.590979+00:00",
        "meta_object_name": "1998-067XV",
        "meta_object_id": "1998-067XV",
        "meta_epoch": "2025-12-06T22:15:20.702880",
        "meta_mean_motion": 15.50597561,
        "meta_eccentricity": 0.000527,
        "meta_inclination": 51.6296,
        "meta_ra_of_asc_node": 171.2269,
        "meta_arg_of_pericenter": 195.203,
        "meta_mean_anomaly": 164.8802,
        "meta_ephemeris_type": 0,
        "meta_classification_type": "U",
        "meta_norad_cat_id": 66909,
        "meta_element_set_no": 999,
        "meta_rev_at_epoch": 71,
        "meta_bstar": 0.0013781016,
        "meta_mean_motion_dot": 0.00080732,
        "meta_mean_motion_ddot": 0,
        "tle_line1": "1 66909U 98067XV  25340.92732295  .00080732  00000+0  13781-2 0  9994",
        "tle_line2": "2 66909  51.6296 171.2269 0005270 195.2030 164.8802 15.50597561   714"
      },
      "geometry": {
        "type": "Point",
        "coordinates": [
          -61.61726494396558,
          44.24265641655215
        ]
      }
    },
    {
      "type": "Feature",
      "properties": {
        "norad_id": 66910,
        "name": "1998-067XW",
        "group": "stations",
        "lat": 41.65761313763213,
        "lon": -55.945604409176546,
        "alt_km": 406.39256464848586,
        "timestamp": "2025-12-07T09:35:08.590989+00:00",
        "meta_object_name": "1998-067XW",
        "meta_object_id": "1998-067XW",
        "meta_epoch": "2025-12-06T22:14:11.406624",
        "meta_mean_motion": 15.50834076,
        "meta_eccentricity": 0.00061612,
        "meta_inclination": 51.6295,
        "meta_ra_of_asc_node": 171.2216,
        "meta_arg_of_pericenter": 180.8315,
        "meta_mean_anomaly": 179.2665,
        "meta_ephemeris_type": 0,
        "meta_classification_type": "U",
        "meta_norad_cat_id": 66910,
        "meta_element_set_no": 999,
        "meta_rev_at_epoch": 71,
        "meta_bstar": 0.001191381,
        "meta_mean_motion_dot": 0.00070242,
        "meta_mean_motion_ddot": 0,
        "tle_line1": "1 66910U 98067XW  25340.92652091  .00070242  00000+0  11914-2 0  9992",
        "tle_line2": "2 66910  51.6295 171.2216 0006161 180.8315 179.2665 15.50834076   715"
      },
      "geometry": {
        "type": "Point",
        "coordinates": [
          -55.945604409176546,
          41.65761313763213
        ]
      }
    },
    {
      "type": "Feature",
      "properties": {
        "norad_id": 66911,
        "name": "1998-067XX",
        "group": "stations",
        "lat": 41.245797774210594,
        "lon": -55.134210602471974,
        "alt_km": 406.19169041953137,
        "timestamp": "2025-12-07T09:35:08.590999+00:00",
        "meta_object_name": "1998-067XX",
        "meta_object_id": "1998-067XX",
        "meta_epoch": "2025-12-06T22:14:02.509152",
        "meta_mean_motion": 15.50921454,
        "meta_eccentricity": 0.00060774,
        "meta_inclination": 51.6294,
        "meta_ra_of_asc_node": 171.2209,
        "meta_arg_of_pericenter": 181.4841,
        "meta_mean_anomaly": 178.6131,
        "meta_ephemeris_type": 0,
        "meta_classification_type": "U",
        "meta_norad_cat_id": 66911,
        "meta_element_set_no": 999,
        "meta_rev_at_epoch": 70,
        "meta_bstar": 0.0013962255,
        "meta_mean_motion_dot": 0.00082787,
        "meta_mean_motion_ddot": 0,
        "tle_line1": "1 66911U 98067XX  25340.92641793  .00082787  00000+0  13962-2 0  9992",
        "tle_line2": "2 66911  51.6294 171.2209 0006077 181.4841 178.6131 15.50921454   701"
      },
      "geometry": {
        "type": "Point",
        "coordinates": [
          -55.134210602471974,
          41.245797774210594
        ]
      }
    },
    {
      "type": "Feature",
      "properties": {
        "norad_id": 66912,
        "name": "1998-067XY",
        "group": "stations",
        "lat": 45.35170802115462,
        "lon": -64.44172586122723,
        "alt_km": 408.6933199127516,
        "timestamp": "2025-12-07T09:35:08.591009+00:00",
        "meta_object_name": "1998-067XY",
        "meta_object_id": "1998-067XY",
        "meta_epoch": "2025-12-06T19:10:11.930016",
        "meta_mean_motion": 15.50363521,
        "meta_eccentricity": 0.00052356,
        "meta_inclination": 51.6299,
        "meta_ra_of_asc_node": 171.8684,
        "meta_arg_of_pericenter": 194.0341,
        "meta_mean_anomaly": 166.0503,
        "meta_ephemeris_type": 0,
        "meta_classification_type": "U",
        "meta_norad_cat_id": 66912,
        "meta_element_set_no": 999,
        "meta_rev_at_epoch": 68,
        "meta_bstar": 0.0011553511,
        "meta_mean_motion_dot": 0.00066928,
        "meta_mean_motion_ddot": 0,
        "tle_line1": "1 66912U 98067XY  25340.79874919  .00066928  00000+0  11554-2 0  9990",
        "tle_line2": "2 66912  51.6299 171.8684 0005235 194.0341 166.0503 15.50363521   686"
      },
      "geometry": {
        "type": "Point",
        "coordinates": [
          -64.44172586122723,
          45.35170802115462
        ]
      }
    }
  ]
}